COSMOS 2058             
1 20465U 90010A   26070.83302541  .00004543  00000+0  26764-3 0  9991
2 20465  82.4670  45.3159 0009025 337.5023  22.5810 15.11343082942564
SL-14 R/B               
1 20466U 90010B   26070.77774035  .00000493  00000+0  56927-4 0  9991
2 20466  82.4987 265.4268 0018444 294.9528  64.9770 14.83570782928794
SL-14 R/B               
1 20511U 90018B   26070.86510415  .00000590  00000+0  70923-4 0  9990
2 20511  82.5207 221.0560 0017654  85.4792 274.8438 14.82147386922901
HST                     
1 20580U 90037B   26070.24775401  .00008856  00000+0  29286-3 0  9995
2 20580  28.4722  29.3700 0001841 140.8013 219.2716 15.29511346773556
SL-16 R/B               
1 20625U 90046B   26070.81794512 -.00000189  00000+0 -72637-4 0  9994
2 20625  70.9983 293.4449 0016215 296.7590  63.1873 14.15011690848692
COSMOS 2084             
1 20663U 90055A   26070.84721244  .00002574  00000+0  19077-3 0  9997
2 20663  62.7919 328.2199 0016759 190.6010 169.4740 15.05665442936649
SL-6 R/B(2)             
1 20666U 90055D   26070.83280553  .00002334  00000+0  18335-3 0  9992
2 20666  62.7825 246.5622 0025148 347.5462  12.5013 15.03605998938514
SL-8 R/B                
1 20775U 90078B   26070.86021967  .00016400  00000+0  48311-3 0  9999
2 20775  82.9006 249.3584 0361763   6.6999 353.8864 14.89141367809624
SL-8 R/B                
1 21088U 91006B   26070.74067078  .00000081  00000+0  65719-4 0  9999
2 21088  82.9465 168.5212 0022957  32.7248  77.3402 13.77494568764353
OKEAN-3                 
1 21397U 91039A   26070.80685970  .00004261  00000+0  29930-3 0  9990
2 21397  82.5195 334.7924 0013754 329.9550  30.0886 15.04824060865351
COSMOS 2151             
1 21422U 91042A   26070.81786042  .00001975  00000+0  15595-3 0  9997
2 21422  82.4930  81.6227 0013932  57.3576 302.8990 15.00112448863516
SL-14 R/B               
1 21423U 91042B   26070.85104013  .00000584  00000+0  70855-4 0  9990
2 21423  82.4929 218.1556 0015903 231.0138 128.9660 14.81832048853391
